<?xml version="1.0" encoding="UTF-8"?>
<ndm xmlns:xsi="http://www.w3.org/2001/XMLSchema-instance" xsi:noNamespaceSchemaLocation="https://sanaregistry.org/r/ndmxml_unqualified/ndmxml-2.0.0-master-2.0.xsd">
<omm id="CCSDS_OMM_VERS" version="2.0">
<header><CREATION_DATE/><ORIGINATOR/></header><body><segment><metadata><OBJECT_NAME>KUIPER-00144</OBJECT_NAME><OBJECT_ID>2025-301A</OBJECT_ID><CENTER_NAME>EARTH</CENTER_NAME><REF_FRAME>TEME</REF_FRAME><TIME_SYSTEM>UTC</TIME_SYSTEM><MEAN_ELEMENT_THEORY>SGP4</MEAN_ELEMENT_THEORY></metadata><data><meanElements><EPOCH>2026-01-26T16:00:42.139296</EPOCH><MEAN_MOTION>15.36788613</MEAN_MOTION><ECCENTRICITY>.0006427</ECCENTRICITY><INCLINATION>51.8694</INCLINATION><RA_OF_ASC_NODE>268.3509</RA_OF_ASC_NODE><ARG_OF_PERICENTER>224.1845</ARG_OF_PERICENTER><MEAN_ANOMALY>135.8628</MEAN_ANOMALY></meanElements><tleParameters><EPHEMERIS_TYPE>0</EPHEMERIS_TYPE><CLASSIFICATION_TYPE>U</CLASSIFICATION_TYPE><NORAD_CAT_ID>67133</NORAD_CAT_ID><ELEMENT_SET_NO>999</ELEMENT_SET_NO><REV_AT_EPOCH>727</REV_AT_EPOCH><BSTAR>.6643E-3</BSTAR><MEAN_MOTION_DOT>.23954E-3</MEAN_MOTION_DOT><MEAN_MOTION_DDOT>0</MEAN_MOTION_DDOT></tleParameters></data></segment></body></omm>
<omm id="CCSDS_OMM_VERS" version="2.0">
<header><CREATION_DATE/><ORIGINATOR/></header><body><segment><metadata><OBJECT_NAME>KUIPER-00164</OBJECT_NAME><OBJECT_ID>2025-301B</OBJECT_ID><CENTER_NAME>EARTH</CENTER_NAME><REF_FRAME>TEME</REF_FRAME><TIME_SYSTEM>UTC</TIME_SYSTEM><MEAN_ELEMENT_THEORY>SGP4</MEAN_ELEMENT_THEORY></metadata><data><meanElements><EPOCH>2026-01-26T15:37:55.065792</EPOCH><MEAN_MOTION>15.37223089</MEAN_MOTION><ECCENTRICITY>.0002744</ECCENTRICITY><INCLINATION>51.8708</INCLINATION><RA_OF_ASC_NODE>268.2539</RA_OF_ASC_NODE><ARG_OF_PERICENTER>205.6405</ARG_OF_PERICENTER><MEAN_ANOMALY>154.4446</MEAN_ANOMALY></meanElements><tleParameters><EPHEMERIS_TYPE>0</EPHEMERIS_TYPE><CLASSIFICATION_TYPE>U</CLASSIFICATION_TYPE><NORAD_CAT_ID>67134</NORAD_CAT_ID><ELEMENT_SET_NO>999</ELEMENT_SET_NO><REV_AT_EPOCH>745</REV_AT_EPOCH><BSTAR>.57086E-3</BSTAR><MEAN_MOTION_DOT>.20806E-3</MEAN_MOTION_DOT><MEAN_MOTION_DDOT>0</MEAN_MOTION_DDOT></tleParameters></data></segment></body></omm>
<omm id="CCSDS_OMM_VERS" version="2.0">
<header><CREATION_DATE/><ORIGINATOR/></header><body><segment><metadata><OBJECT_NAME>KUIPER-00175</OBJECT_NAME><OBJECT_ID>2025-301C</OBJECT_ID><CENTER_NAME>EARTH</CENTER_NAME><REF_FRAME>TEME</REF_FRAME><TIME_SYSTEM>UTC</TIME_SYSTEM><MEAN_ELEMENT_THEORY>SGP4</MEAN_ELEMENT_THEORY></metadata><data><meanElements><EPOCH>2026-01-25T15:54:05.952960</EPOCH><MEAN_MOTION>15.37693586</MEAN_MOTION><ECCENTRICITY>.0003038</ECCENTRICITY><INCLINATION>51.8731</INCLINATION><RA_OF_ASC_NODE>272.8781</RA_OF_ASC_NODE><ARG_OF_PERICENTER>141.2627</ARG_OF_PERICENTER><MEAN_ANOMALY>218.8578</MEAN_ANOMALY></meanElements><tleParameters><EPHEMERIS_TYPE>0</EPHEMERIS_TYPE><CLASSIFICATION_TYPE>U</CLASSIFICATION_TYPE><NORAD_CAT_ID>67135</NORAD_CAT_ID><ELEMENT_SET_NO>999</ELEMENT_SET_NO><REV_AT_EPOCH>719</REV_AT_EPOCH><BSTAR>.19788E-2</BSTAR><MEAN_MOTION_DOT>.74742E-3</MEAN_MOTION_DOT><MEAN_MOTION_DDOT>0</MEAN_MOTION_DDOT></tleParameters></data></segment></body></omm>
<omm id="CCSDS_OMM_VERS" version="2.0">
<header><CREATION_DATE/><ORIGINATOR/></header><body><segment><metadata><OBJECT_NAME>KUIPER-00179</OBJECT_NAME><OBJECT_ID>2025-301D</OBJECT_ID><CENTER_NAME>EARTH</CENTER_NAME><REF_FRAME>TEME</REF_FRAME><TIME_SYSTEM>UTC</TIME_SYSTEM><MEAN_ELEMENT_THEORY>SGP4</MEAN_ELEMENT_THEORY></metadata><data><meanElements><EPOCH>2026-01-26T15:33:05.775264</EPOCH><MEAN_MOTION>15.37164324</MEAN_MOTION><ECCENTRICITY>.0001788</ECCENTRICITY><INCLINATION>51.8716</INCLINATION><RA_OF_ASC_NODE>268.2344</RA_OF_ASC_NODE><ARG_OF_PERICENTER>164.6877</ARG_OF_PERICENTER><MEAN_ANOMALY>195.4164</MEAN_ANOMALY></meanElements><tleParameters><EPHEMERIS_TYPE>0</EPHEMERIS_TYPE><CLASSIFICATION_TYPE>U</CLASSIFICATION_TYPE><NORAD_CAT_ID>67136</NORAD_CAT_ID><ELEMENT_SET_NO>999</ELEMENT_SET_NO><REV_AT_EPOCH>745</REV_AT_EPOCH><BSTAR>.11437E-2</BSTAR><MEAN_MOTION_DOT>.42111E-3</MEAN_MOTION_DOT><MEAN_MOTION_DDOT>0</MEAN_MOTION_DDOT></tleParameters></data></segment></body></omm>
<omm id="CCSDS_OMM_VERS" version="2.0">
<header><CREATION_DATE/><ORIGINATOR/></header><body><segment><metadata><OBJECT_NAME>KUIPER-00181</OBJECT_NAME><OBJECT_ID>2025-301E</OBJECT_ID><CENTER_NAME>EARTH</CENTER_NAME><REF_FRAME>TEME</REF_FRAME><TIME_SYSTEM>UTC</TIME_SYSTEM><MEAN_ELEMENT_THEORY>SGP4</MEAN_ELEMENT_THEORY></metadata><data><meanElements><EPOCH>2026-01-26T20:00:01.999008</EPOCH><MEAN_MOTION>15.29816208</MEAN_MOTION><ECCENTRICITY>.0011455</ECCENTRICITY><INCLINATION>51.8681</INCLINATION><RA_OF_ASC_NODE>268.0748</RA_OF_ASC_NODE><ARG_OF_PERICENTER>252.1279</ARG_OF_PERICENTER><MEAN_ANOMALY>28.7397</MEAN_ANOMALY></meanElements><tleParameters><EPHEMERIS_TYPE>0</EPHEMERIS_TYPE><CLASSIFICATION_TYPE>U</CLASSIFICATION_TYPE><NORAD_CAT_ID>67137</NORAD_CAT_ID><ELEMENT_SET_NO>999</ELEMENT_SET_NO><REV_AT_EPOCH>529</REV_AT_EPOCH><BSTAR>-.44091E-1</BSTAR><MEAN_MOTION_DOT>-.1177956E-1</MEAN_MOTION_DOT><MEAN_MOTION_DDOT>0</MEAN_MOTION_DDOT></tleParameters></data></segment></body></omm>
<omm id="CCSDS_OMM_VERS" version="2.0">
<header><CREATION_DATE/><ORIGINATOR/></header><body><segment><metadata><OBJECT_NAME>KUIPER-00183</OBJECT_NAME><OBJECT_ID>2025-301F</OBJECT_ID><CENTER_NAME>EARTH</CENTER_NAME><REF_FRAME>TEME</REF_FRAME><TIME_SYSTEM>UTC</TIME_SYSTEM><MEAN_ELEMENT_THEORY>SGP4</MEAN_ELEMENT_THEORY></metadata><data><meanElements><EPOCH>2026-01-25T22:07:57.442368</EPOCH><MEAN_MOTION>15.35507888</MEAN_MOTION><ECCENTRICITY>.00119144</ECCENTRICITY><INCLINATION>51.8615</INCLINATION><RA_OF_ASC_NODE>272.3217</RA_OF_ASC_NODE><ARG_OF_PERICENTER>248.8611</ARG_OF_PERICENTER><MEAN_ANOMALY>111.1101</MEAN_ANOMALY></meanElements><tleParameters><EPHEMERIS_TYPE>0</EPHEMERIS_TYPE><CLASSIFICATION_TYPE>U</CLASSIFICATION_TYPE><NORAD_CAT_ID>67138</NORAD_CAT_ID><ELEMENT_SET_NO>999</ELEMENT_SET_NO><REV_AT_EPOCH>732</REV_AT_EPOCH><BSTAR>.84917113E-3</BSTAR><MEAN_MOTION_DOT>.29546E-3</MEAN_MOTION_DOT><MEAN_MOTION_DDOT>0</MEAN_MOTION_DDOT></tleParameters></data></segment></body></omm>
<omm id="CCSDS_OMM_VERS" version="2.0">
<header><CREATION_DATE/><ORIGINATOR/></header><body><segment><metadata><OBJECT_NAME>KUIPER-00184</OBJECT_NAME><OBJECT_ID>2025-301G</OBJECT_ID><CENTER_NAME>EARTH</CENTER_NAME><REF_FRAME>TEME</REF_FRAME><TIME_SYSTEM>UTC</TIME_SYSTEM><MEAN_ELEMENT_THEORY>SGP4</MEAN_ELEMENT_THEORY></metadata><data><meanElements><EPOCH>2026-01-26T18:13:39.832320</EPOCH><MEAN_MOTION>15.35818881</MEAN_MOTION><ECCENTRICITY>.0010324</ECCENTRICITY><INCLINATION>51.8633</INCLINATION><RA_OF_ASC_NODE>268.1870</RA_OF_ASC_NODE><ARG_OF_PERICENTER>248.5603</ARG_OF_PERICENTER><MEAN_ANOMALY>111.4282</MEAN_ANOMALY></meanElements><tleParameters><EPHEMERIS_TYPE>0</EPHEMERIS_TYPE><CLASSIFICATION_TYPE>U</CLASSIFICATION_TYPE><NORAD_CAT_ID>67139</NORAD_CAT_ID><ELEMENT_SET_NO>999</ELEMENT_SET_NO><REV_AT_EPOCH>756</REV_AT_EPOCH><BSTAR>.14787E-2</BSTAR><MEAN_MOTION_DOT>.52387E-3</MEAN_MOTION_DOT><MEAN_MOTION_DDOT>0</MEAN_MOTION_DDOT></tleParameters></data></segment></body></omm>
<omm id="CCSDS_OMM_VERS" version="2.0">
<header><CREATION_DATE/><ORIGINATOR/></header><body><segment><metadata><OBJECT_NAME>KUIPER-00186</OBJECT_NAME><OBJECT_ID>2025-301H</OBJECT_ID><CENTER_NAME>EARTH</CENTER_NAME><REF_FRAME>TEME</REF_FRAME><TIME_SYSTEM>UTC</TIME_SYSTEM><MEAN_ELEMENT_THEORY>SGP4</MEAN_ELEMENT_THEORY></metadata><data><meanElements><EPOCH>2026-01-26T20:00:01.999008</EPOCH><MEAN_MOTION>15.28602235</MEAN_MOTION><ECCENTRICITY>.0006959</ECCENTRICITY><INCLINATION>51.8709</INCLINATION><RA_OF_ASC_NODE>267.9280</RA_OF_ASC_NODE><ARG_OF_PERICENTER>236.5238</ARG_OF_PERICENTER><MEAN_ANOMALY>142.7291</MEAN_ANOMALY></meanElements><tleParameters><EPHEMERIS_TYPE>0</EPHEMERIS_TYPE><CLASSIFICATION_TYPE>U</CLASSIFICATION_TYPE><NORAD_CAT_ID>67140</NORAD_CAT_ID><ELEMENT_SET_NO>999</ELEMENT_SET_NO><REV_AT_EPOCH>590</REV_AT_EPOCH><BSTAR>-.19538E-2</BSTAR><MEAN_MOTION_DOT>-.55132E-3</MEAN_MOTION_DOT><MEAN_MOTION_DDOT>0</MEAN_MOTION_DDOT></tleParameters></data></segment></body></omm>
<omm id="CCSDS_OMM_VERS" version="2.0">
<header><CREATION_DATE/><ORIGINATOR/></header><body><segment><metadata><OBJECT_NAME>KUIPER-00187</OBJECT_NAME><OBJECT_ID>2025-301J</OBJECT_ID><CENTER_NAME>EARTH</CENTER_NAME><REF_FRAME>TEME</REF_FRAME><TIME_SYSTEM>UTC</TIME_SYSTEM><MEAN_ELEMENT_THEORY>SGP4</MEAN_ELEMENT_THEORY></metadata><data><meanElements><EPOCH>2026-01-26T20:00:01.999008</EPOCH><MEAN_MOTION>15.14448611</MEAN_MOTION><ECCENTRICITY>.0008202</ECCENTRICITY><INCLINATION>51.8812</INCLINATION><RA_OF_ASC_NODE>268.6260</RA_OF_ASC_NODE><ARG_OF_PERICENTER>251.8112</ARG_OF_PERICENTER><MEAN_ANOMALY>90.7498</MEAN_ANOMALY></meanElements><tleParameters><EPHEMERIS_TYPE>0</EPHEMERIS_TYPE><CLASSIFICATION_TYPE>U</CLASSIFICATION_TYPE><NORAD_CAT_ID>67141</NORAD_CAT_ID><ELEMENT_SET_NO>999</ELEMENT_SET_NO><REV_AT_EPOCH>579</REV_AT_EPOCH><BSTAR>-.73577E-1</BSTAR><MEAN_MOTION_DOT>-.1254341E-1</MEAN_MOTION_DOT><MEAN_MOTION_DDOT>0</MEAN_MOTION_DDOT></tleParameters></data></segment></body></omm>

</ndm>
